[
    {
        "CCSDS_OMM_VERS": "2.0",
        "COMMENT": "GENERATED VIA SPACE-TRACK.ORG API",
        "CREATION_DATE": "2023-07-12T14:36:12",
        "ORIGINATOR": "18 SPCS",
        "OBJECT_NAME": "THOR ABLESTAR DEB",
        "OBJECT_ID": "1961-015F",
        "CENTER_NAME": "EARTH",
        "REF_FRAME": "TEME",
        "TIME_SYSTEM": "UTC",
        "MEAN_ELEMENT_THEORY": "SGP4",
        "EPOCH": "2023-07-12T10:03:05.498496",
        "MEAN_MOTION": "13.99840368",
        "ECCENTRICITY": "0.00895760",
        "INCLINATION": "66.7459",
        "RA_OF_ASC_NODE": "182.5174",
        "ARG_OF_PERICENTER": "29.0225",
        "MEAN_ANOMALY": "331.5795",
        "EPHEMERIS_TYPE": "0",
        "CLASSIFICATION_TYPE": "U",
        "NORAD_CAT_ID": "121",
        "ELEMENT_SET_NO": "999",
        "REV_AT_EPOCH": "17646",
        "BSTAR": "0.00008581500000",
        "MEAN_MOTION_DOT": "0.00000052",
        "MEAN_MOTION_DDOT": "0.0000000000000",
        "SEMIMAJOR_AXIS": "7272.485",
        "PERIOD": "102.869",
        "APOAPSIS": "959.494",
        "PERIAPSIS": "829.206",
        "OBJECT_TYPE": "DEBRIS",
        "RCS_SIZE": "MEDIUM",
        "COUNTRY_CODE": "US",
        "LAUNCH_DATE": "1961-06-29",
        "SITE": "AFETR",
        "DECAY_DATE": null,
        "FILE": "3955981",
        "GP_ID": "234868723",
        "TLE_LINE0": "0 THOR ABLESTAR DEB",
        "TLE_LINE1": "1   121U 61015F   23193.41881364  .00000052  00000-0  85815-4 0  9998",
        "TLE_LINE2": "2   121  66.7459 182.5174 0089576  29.0225 331.5795 13.99840368176464"
    },
    {
        "CCSDS_OMM_VERS": "2.0",
        "COMMENT": "GENERATED VIA SPACE-TRACK.ORG API",
        "CREATION_DATE": "2023-07-12T14:36:12",
        "ORIGINATOR": "18 SPCS",
        "OBJECT_NAME": "THOR ABLESTAR DEB",
        "OBJECT_ID": "1961-015G",
        "CENTER_NAME": "EARTH",
        "REF_FRAME": "TEME",
        "TIME_SYSTEM": "UTC",
        "MEAN_ELEMENT_THEORY": "SGP4",
        "EPOCH": "2023-07-12T11:57:44.701056",
        "MEAN_MOTION": "14.74405134",
        "ECCENTRICITY": "0.00685960",
        "INCLINATION": "66.7510",
        "RA_OF_ASC_NODE": "5.9224",
        "ARG_OF_PERICENTER": "331.7311",
        "MEAN_ANOMALY": "28.0093",
        "EPHEMERIS_TYPE": "0",
        "CLASSIFICATION_TYPE": "U",
        "NORAD_CAT_ID": "122",
        "ELEMENT_SET_NO": "999",
        "REV_AT_EPOCH": "25588",
        "BSTAR": "0.00057402000000",
        "MEAN_MOTION_DOT": "0.00003848",
        "MEAN_MOTION_DDOT": "0.0000000000000",
        "SEMIMAJOR_AXIS": "7025.177",
        "PERIOD": "97.667",
        "APOAPSIS": "695.232",
        "PERIAPSIS": "598.852",
        "OBJECT_TYPE": "DEBRIS",
        "RCS_SIZE": "MEDIUM",
        "COUNTRY_CODE": "US",
        "LAUNCH_DATE": "1961-06-29",
        "SITE": "AFETR",
        "DECAY_DATE": null,
        "FILE": "3956004",
        "GP_ID": "234868570",
        "TLE_LINE0": "0 THOR ABLESTAR DEB",
        "TLE_LINE1": "1   122U 61015G   23193.49843404  .00003848  00000-0  57402-3 0  9996",
        "TLE_LINE2": "2   122  66.7510   5.9224 0068596 331.7311  28.0093 14.74405134255880"
    },
    {
        "CCSDS_OMM_VERS": "2.0",
        "COMMENT": "GENERATED VIA SPACE-TRACK.ORG API",
        "CREATION_DATE": "2023-07-11T22:46:13",
        "ORIGINATOR": "18 SPCS",
        "OBJECT_NAME": "THOR ABLESTAR DEB",
        "OBJECT_ID": "1961-015H",
        "CENTER_NAME": "EARTH",
        "REF_FRAME": "TEME",
        "TIME_SYSTEM": "UTC",
        "MEAN_ELEMENT_THEORY": "SGP4",
        "EPOCH": "2023-07-11T20:36:38.214432",
        "MEAN_MOTION": "14.38188966",
        "ECCENTRICITY": "0.01177470",
        "INCLINATION": "66.6858",
        "RA_OF_ASC_NODE": "38.6773",
        "ARG_OF_PERICENTER": "330.6490",
        "MEAN_ANOMALY": "28.8030",
        "EPHEMERIS_TYPE": "0",
        "CLASSIFICATION_TYPE": "U",
        "NORAD_CAT_ID": "123",
        "ELEMENT_SET_NO": "999",
        "REV_AT_EPOCH": "22581",
        "BSTAR": "0.00018087000000",
        "MEAN_MOTION_DOT": "0.00000502",
        "MEAN_MOTION_DDOT": "0.0000000000000",
        "SEMIMAJOR_AXIS": "7142.625",
        "PERIOD": "100.126",
        "APOAPSIS": "848.593",
        "PERIAPSIS": "680.388",
        "OBJECT_TYPE": "DEBRIS",
        "RCS_SIZE": "MEDIUM",
        "COUNTRY_CODE": "US",
        "LAUNCH_DATE": "1961-06-29",
        "SITE": "AFETR",
        "DECAY_DATE": null,
        "FILE": "3955528",
        "GP_ID": "234857490",
        "TLE_LINE0": "0 THOR ABLESTAR DEB",
        "TLE_LINE1": "1   123U 61015H   23192.85877563  .00000502  00000-0  18087-3 0  9999",
        "TLE_LINE2": "2   123  66.6858  38.6773 0117747 330.6490  28.8030 14.38188966225816"
    },
    {
        "CCSDS_OMM_VERS": "2.0",
        "COMMENT": "GENERATED VIA SPACE-TRACK.ORG API",
        "CREATION_DATE": "2023-07-12T22:36:13",
        "ORIGINATOR": "18 SPCS",
        "OBJECT_NAME": "THOR ABLESTAR DEB",
        "OBJECT_ID": "1961-015J",
        "CENTER_NAME": "EARTH",
        "REF_FRAME": "TEME",
        "TIME_SYSTEM": "UTC",
        "MEAN_ELEMENT_THEORY": "SGP4",
        "EPOCH": "2023-07-12T18:19:03.941184",
        "MEAN_MOTION": "14.32026571",
        "ECCENTRICITY": "0.00719350",
        "INCLINATION": "66.5423",
        "RA_OF_ASC_NODE": "200.5184",
        "ARG_OF_PERICENTER": "162.1304",
        "MEAN_ANOMALY": "198.2349",
        "EPHEMERIS_TYPE": "0",
        "CLASSIFICATION_TYPE": "U",
        "NORAD_CAT_ID": "124",
        "ELEMENT_SET_NO": "999",
        "REV_AT_EPOCH": "20591",
        "BSTAR": "0.00043014000000",
        "MEAN_MOTION_DOT": "0.00001103",
        "MEAN_MOTION_DDOT": "0.0000000000000",
        "SEMIMAJOR_AXIS": "7163.102",
        "PERIOD": "100.557",
        "APOAPSIS": "836.495",
        "PERIAPSIS": "733.439",
        "OBJECT_TYPE": "DEBRIS",
        "RCS_SIZE": "SMALL",
        "COUNTRY_CODE": "US",
        "LAUNCH_DATE": "1961-06-29",
        "SITE": "AFETR",
        "DECAY_DATE": null,
        "FILE": "3956340",
        "GP_ID": "234877349",
        "TLE_LINE0": "0 THOR ABLESTAR DEB",
        "TLE_LINE1": "1   124U 61015J   23193.76324006  .00001103  00000-0  43014-3 0  9996",
        "TLE_LINE2": "2   124  66.5423 200.5184 0071935 162.1304 198.2349 14.32026571205911"
    },
    {
        "CCSDS_OMM_VERS": "2.0",
        "COMMENT": "GENERATED VIA SPACE-TRACK.ORG API",
        "CREATION_DATE": "2023-07-12T06:26:12",
        "ORIGINATOR": "18 SPCS",
        "OBJECT_NAME": "THOR ABLESTAR DEB",
        "OBJECT_ID": "1961-015K",
        "CENTER_NAME": "EARTH",
        "REF_FRAME": "TEME",
        "TIME_SYSTEM": "UTC",
        "MEAN_ELEMENT_THEORY": "SGP4",
        "EPOCH": "2023-07-12T02:47:31.109856",
        "MEAN_MOTION": "14.06117488",
        "ECCENTRICITY": "0.00692630",
        "INCLINATION": "66.8765",
        "RA_OF_ASC_NODE": "87.6076",
        "ARG_OF_PERICENTER": "132.7022",
        "MEAN_ANOMALY": "227.9927",
        "EPHEMERIS_TYPE": "0",
        "CLASSIFICATION_TYPE": "U",
        "NORAD_CAT_ID": "125",
        "ELEMENT_SET_NO": "999",
        "REV_AT_EPOCH": "16707",
        "BSTAR": "0.00019464000000",
        "MEAN_MOTION_DOT": "0.00000248",
        "MEAN_MOTION_DDOT": "0.0000000000000",
        "SEMIMAJOR_AXIS": "7250.825",
        "PERIOD": "102.410",
        "APOAPSIS": "922.912",
        "PERIAPSIS": "822.469",
        "OBJECT_TYPE": "DEBRIS",
        "RCS_SIZE": "SMALL",
        "COUNTRY_CODE": "US",
        "LAUNCH_DATE": "1961-06-29",
        "SITE": "AFETR",
        "DECAY_DATE": null,
        "FILE": "3955663",
        "GP_ID": "234860636",
        "TLE_LINE0": "0 THOR ABLESTAR DEB",
        "TLE_LINE1": "1   125U 61015K   23193.11633229  .00000248  00000-0  19464-3 0  9997",
        "TLE_LINE2": "2   125  66.8765  87.6076 0069263 132.7022 227.9927 14.06117488167074"
    },
    {
        "CCSDS_OMM_VERS": "2.0",
        "COMMENT": "GENERATED VIA SPACE-TRACK.ORG API",
        "CREATION_DATE": "2023-07-11T06:46:13",
        "ORIGINATOR": "18 SPCS",
        "OBJECT_NAME": "THOR ABLESTAR DEB",
        "OBJECT_ID": "1961-015L",
        "CENTER_NAME": "EARTH",
        "REF_FRAME": "TEME",
        "TIME_SYSTEM": "UTC",
        "MEAN_ELEMENT_THEORY": "SGP4",
        "EPOCH": "2023-07-11T01:26:43.324224",
        "MEAN_MOTION": "14.38202681",
        "ECCENTRICITY": "0.00706560",
        "INCLINATION": "66.7119",
        "RA_OF_ASC_NODE": "71.2621",
        "ARG_OF_PERICENTER": "322.3191",
        "MEAN_ANOMALY": "37.2973",
        "EPHEMERIS_TYPE": "0",
        "CLASSIFICATION_TYPE": "U",
        "NORAD_CAT_ID": "126",
        "ELEMENT_SET_NO": "999",
        "REV_AT_EPOCH": "21046",
        "BSTAR": "0.00035638000000",
        "MEAN_MOTION_DOT": "0.00001027",
        "MEAN_MOTION_DDOT": "0.0000000000000",
        "SEMIMAJOR_AXIS": "7142.580",
        "PERIOD": "100.125",
        "APOAPSIS": "814.912",
        "PERIAPSIS": "713.978",
        "OBJECT_TYPE": "DEBRIS",
        "RCS_SIZE": "MEDIUM",
        "COUNTRY_CODE": "US",
        "LAUNCH_DATE": "1961-06-29",
        "SITE": "AFETR",
        "DECAY_DATE": null,
        "FILE": "3954981",
        "GP_ID": "234844649",
        "TLE_LINE0": "0 THOR ABLESTAR DEB",
        "TLE_LINE1": "1   126U 61015L   23192.06022366  .00001027  00000-0  35638-3 0  9992",
        "TLE_LINE2": "2   126  66.7119  71.2621 0070656 322.3191  37.2973 14.38202681210464"
    }]